{
    "week": 295,
    "satellites": [
        {
            "Name": "COSMOS 2545 (760)",
            "Line1": "1 45358U 20018A   24339.39744819 -.00000028  00000+0  00000+0 0  9991",
            "Line2": "2 45358  64.6700 332.0264 0012057 250.7369 109.1486  2.13102509 36738",
            "SatelliteNumber": "45358",
            "Classification": "U",
            "LaunchYear": "20",
            "LaunchNumber": "018",
            "PieceOfLaunch": "A",
            "EpochYear": "24",
            "EpochDay": 339.39744819,
            "FirstDerivativeMeanMotion": -2.8e-07,
            "SecondDerivativeMeanMotion": "00000+0",
            "BSTAR": "00000+0",
            "SetNumber": "999",
            "Inclination": 64.67,
            "RAAN": 332.0264,
            "Eccentricity": 0.0012057,
            "ArgumentOfPerigee": 250.7369,
            "MeanAnomaly": 109.1486,
            "MeanMotion": 2.13102509,
            "RevolutionNumber": "3673"
        },
        {
            "Name": "COSMOS 2547 (705K)",
            "Line1": "1 46805U 20075A   24339.11472257  .00000074  00000+0  00000+0 0  9996",
            "Line2": "2 46805  64.5956 211.1833 0006092 234.0380 126.0033  2.13102816 31975",
            "SatelliteNumber": "46805",
            "Classification": "U",
            "LaunchYear": "20",
            "LaunchNumber": "075",
            "PieceOfLaunch": "A",
            "EpochYear": "24",
            "EpochDay": 339.11472257,
            "FirstDerivativeMeanMotion": 7.4e-07,
            "SecondDerivativeMeanMotion": "00000+0",
            "BSTAR": "00000+0",
            "SetNumber": "999",
            "Inclination": 64.5956,
            "RAAN": 211.1833,
            "Eccentricity": 0.0006092,
            "ArgumentOfPerigee": 234.038,
            "MeanAnomaly": 126.0033,
            "MeanMotion": 2.13102816,
            "RevolutionNumber": "3197"
        },
        {
            "Name": "COSMOS 2557 (706K)",
            "Line1": "1 52984U 22075A   24339.28070929 -.00000029  00000+0  00000+0 0  9992",
            "Line2": "2 52984  64.6013 334.1448 0014124 277.9874  81.8710  2.13101953 18787",
            "SatelliteNumber": "52984",
            "Classification": "U",
            "LaunchYear": "22",
            "LaunchNumber": "075",
            "PieceOfLaunch": "A",
            "EpochYear": "24",
            "EpochDay": 339.28070929,
            "FirstDerivativeMeanMotion": -2.9e-07,
            "SecondDerivativeMeanMotion": "00000+0",
            "BSTAR": "00000+0",
            "SetNumber": "999",
            "Inclination": 64.6013,
            "RAAN": 334.1448,
            "Eccentricity": 0.0014124,
            "ArgumentOfPerigee": 277.9874,
            "MeanAnomaly": 81.871,
            "MeanMotion": 2.13101953,
            "RevolutionNumber": "1878"
        },
        {
            "Name": "COSMOS 2559 (707K)",
            "Line1": "1 54031U 22130A   24339.22415094 -.00000030  00000+0  00000+0 0  9991",
            "Line2": "2 54031  64.5733 334.2585 0008114 234.2247 125.7189  2.13101303 16757",
            "SatelliteNumber": "54031",
            "Classification": "U",
            "LaunchYear": "22",
            "LaunchNumber": "130",
            "PieceOfLaunch": "A",
            "EpochYear": "24",
            "EpochDay": 339.22415094,
            "FirstDerivativeMeanMotion": -3e-07,
            "SecondDerivativeMeanMotion": "00000+0",
            "BSTAR": "00000+0",
            "SetNumber": "999",
            "Inclination": 64.5733,
            "RAAN": 334.2585,
            "Eccentricity": 0.0008114,
            "ArgumentOfPerigee": 234.2247,
            "MeanAnomaly": 125.7189,
            "MeanMotion": 2.13101303,
            "RevolutionNumber": "1675"
        },
        {
            "Name": "COSMOS 2564 (761)",
            "Line1": "1 54377U 22161A   24338.94508669  .00000075  00000+0  00000+0 0  9995",
            "Line2": "2 54377  64.7371 211.3243 0008197 209.3231 150.7291  2.13102098 15699",
            "SatelliteNumber": "54377",
            "Classification": "U",
            "LaunchYear": "22",
            "LaunchNumber": "161",
            "PieceOfLaunch": "A",
            "EpochYear": "24",
            "EpochDay": 338.94508669,
            "FirstDerivativeMeanMotion": 7.5e-07,
            "SecondDerivativeMeanMotion": "00000+0",
            "BSTAR": "00000+0",
            "SetNumber": "999",
            "Inclination": 64.7371,
            "RAAN": 211.3243,
            "Eccentricity": 0.0008197,
            "ArgumentOfPerigee": 209.3231,
            "MeanAnomaly": 150.7291,
            "MeanMotion": 2.13102098,
            "RevolutionNumber": "1569"
        },
        {
            "Name": "COSMOS 2569 (703K)",
            "Line1": "1 57517U 23114A   24338.96097697  .00000021  00000+0  00000+0 0  9990",
            "Line2": "2 57517  64.9971  91.5605 0009761 289.1993  70.6903  2.13104069 10320",
            "SatelliteNumber": "57517",
            "Classification": "U",
            "LaunchYear": "23",
            "LaunchNumber": "114",
            "PieceOfLaunch": "A",
            "EpochYear": "24",
            "EpochDay": 338.96097697,
            "FirstDerivativeMeanMotion": 2.1e-07,
            "SecondDerivativeMeanMotion": "00000+0",
            "BSTAR": "00000+0",
            "SetNumber": "999",
            "Inclination": 64.9971,
            "RAAN": 91.5605,
            "Eccentricity": 0.0009761,
            "ArgumentOfPerigee": 289.1993,
            "MeanAnomaly": 70.6903,
            "MeanMotion": 2.13104069,
            "RevolutionNumber": "1032"
        }
    ]
}